SL-3 R/B                
1 13403U 82079B   26081.85629109  .00007180  00000+0  28427-3 0  9995
2 13403  81.1488 177.5318 0025446 121.3760 238.9968 15.24978726379708
SL-14 R/B               
1 13553U 82092B   26081.57609716  .00000426  00000+0  45101-4 0  9992
2 13553  82.5670 129.3455 0018799 257.4351 216.1331 14.86677682330847
SL-3 R/B                
1 13819U 83010B   26081.76547727  .00018372  00000+0  36367-3 0  9994
2 13819  81.1056 346.2136 0016667   7.4126 352.7362 15.46795246359965
SL-3 R/B                
1 14208U 83075B   26081.95472736  .00012870  00000+0  33580-3 0  9997
2 14208  97.6144  87.0375 0021598 176.8313 183.3072 15.38722349332198
COSMOS 1536             
1 14699U 84013A   26081.52415309  .00008000  00000+0  32843-3 0  9991
2 14699  82.5415  95.0872 0012751 232.2667 127.7415 15.23988288274577
SL-14 R/B               
1 14820U 84027B   26081.82387899  .00000519  00000+0  56582-4 0  9991
2 14820  82.5403 232.6924 0016559 291.8046  68.1408 14.85989545249586
SL-8 R/B                
1 15483U 85006B   26081.88764020  .00000344  00000+0  12281-3 0  9999
2 15483  74.0441 236.8606 0017905 151.0564 319.7422 14.37792763155927
SL-12 R/B(2)            
1 15772U 85042D   26081.36556613  .00000109  00000+0  70521-4 0  9991
2 15772  71.1073  60.9456 0032885 107.1467   0.9123 14.21985713116199
SL-14 R/B               
1 15945U 85069B   26081.87198797  .00000522  00000+0  56151-4 0  9995
2 15945  82.5302  12.5402 0019633 144.7486 215.5034 14.86447091174798
SL-16 R/B               
1 16182U 85097B   26081.85992037  .00000228  00000+0  13830-3 0  9996
2 16182  71.0012 112.8267 0009557 244.1194 288.1368 14.16601987 89094
SL-14 R/B               
1 16496U 86006B   26081.84565995  .00000797  00000+0  82197-4 0  9997
2 16496  82.5241 247.3517 0075394 228.3669 131.1076 14.86833820151169
COSMOS 1743             
1 16719U 86034A   26081.92811238  .00050305  00000+0  62964-3 0  9998
2 16719  82.5304  59.9244 0003050 192.0968 168.0216 15.59584453182312
