CCSDS_OMM_VERS = 2.0
CREATION_DATE  = 
ORIGINATOR     = 

OBJECT_NAME    = SL-3 R/B
OBJECT_ID      = 1982-079B
CENTER_NAME    = EARTH
REF_FRAME      = TEME
TIME_SYSTEM    = UTC
MEAN_ELEMENT_THEORY = SGP/SGP4

EPOCH          = 2026-03-22T20:33:03.550176
MEAN_MOTION    = 15.24978726
ECCENTRICITY   = .00254463
INCLINATION    = 81.1488
RA_OF_ASC_NODE = 177.5318
ARG_OF_PERICENTER = 121.3760
MEAN_ANOMALY   = 238.9968

EPHEMERIS_TYPE = 0
CLASSIFICATION_TYPE = U
NORAD_CAT_ID   = 13403
ELEMENT_SET_NO = 999
REV_AT_EPOCH   = 37970
BSTAR          = .28426628E-3
MEAN_MOTION_DOT = .718E-4
MEAN_MOTION_DDOT = 0

CCSDS_OMM_VERS = 2.0
CREATION_DATE  = 
ORIGINATOR     = 

OBJECT_NAME    = SL-14 R/B
OBJECT_ID      = 1982-092B
CENTER_NAME    = EARTH
REF_FRAME      = TEME
TIME_SYSTEM    = UTC
MEAN_ELEMENT_THEORY = SGP/SGP4

EPOCH          = 2026-03-22T13:49:34.794624
MEAN_MOTION    = 14.86677682
ECCENTRICITY   = .00187993
INCLINATION    = 82.5670
RA_OF_ASC_NODE = 129.3455
ARG_OF_PERICENTER = 257.4351
MEAN_ANOMALY   = 216.1331

EPHEMERIS_TYPE = 0
CLASSIFICATION_TYPE = U
NORAD_CAT_ID   = 13553
ELEMENT_SET_NO = 999
REV_AT_EPOCH   = 33084
BSTAR          = .4510054E-4
MEAN_MOTION_DOT = .426E-5
MEAN_MOTION_DDOT = 0

CCSDS_OMM_VERS = 2.0
CREATION_DATE  = 
ORIGINATOR     = 

OBJECT_NAME    = SL-3 R/B
OBJECT_ID      = 1983-010B
CENTER_NAME    = EARTH
REF_FRAME      = TEME
TIME_SYSTEM    = UTC
MEAN_ELEMENT_THEORY = SGP/SGP4

EPOCH          = 2026-03-22T18:22:17.236128
MEAN_MOTION    = 15.46795246
ECCENTRICITY   = .00166672
INCLINATION    = 81.1056
RA_OF_ASC_NODE = 346.2136
ARG_OF_PERICENTER = 7.4126
MEAN_ANOMALY   = 352.7362

EPHEMERIS_TYPE = 0
CLASSIFICATION_TYPE = U
NORAD_CAT_ID   = 13819
ELEMENT_SET_NO = 999
REV_AT_EPOCH   = 35996
BSTAR          = .36367077E-3
MEAN_MOTION_DOT = .18372E-3
MEAN_MOTION_DDOT = 0

CCSDS_OMM_VERS = 2.0
CREATION_DATE  = 
ORIGINATOR     = 

OBJECT_NAME    = SL-3 R/B
OBJECT_ID      = 1983-075B
CENTER_NAME    = EARTH
REF_FRAME      = TEME
TIME_SYSTEM    = UTC
MEAN_ELEMENT_THEORY = SGP/SGP4

EPOCH          = 2026-03-22T22:54:48.443904
MEAN_MOTION    = 15.38722349
ECCENTRICITY   = .00215983
INCLINATION    = 97.6144
RA_OF_ASC_NODE = 87.0375
ARG_OF_PERICENTER = 176.8313
MEAN_ANOMALY   = 183.3072

EPHEMERIS_TYPE = 0
CLASSIFICATION_TYPE = U
NORAD_CAT_ID   = 14208
ELEMENT_SET_NO = 999
REV_AT_EPOCH   = 33219
BSTAR          = .33580488E-3
MEAN_MOTION_DOT = .1287E-3
MEAN_MOTION_DDOT = 0

CCSDS_OMM_VERS = 2.0
CREATION_DATE  = 
ORIGINATOR     = 

OBJECT_NAME    = COSMOS 1536
OBJECT_ID      = 1984-013A
CENTER_NAME    = EARTH
REF_FRAME      = TEME
TIME_SYSTEM    = UTC
MEAN_ELEMENT_THEORY = SGP/SGP4

EPOCH          = 2026-03-22T12:34:46.826976
MEAN_MOTION    = 15.23988288
ECCENTRICITY   = .00127516
INCLINATION    = 82.5415
RA_OF_ASC_NODE = 95.0872
ARG_OF_PERICENTER = 232.2667
MEAN_ANOMALY   = 127.7415

EPHEMERIS_TYPE = 0
CLASSIFICATION_TYPE = U
NORAD_CAT_ID   = 14699
ELEMENT_SET_NO = 999
REV_AT_EPOCH   = 27457
BSTAR          = .32842941E-3
MEAN_MOTION_DOT = .8E-4
MEAN_MOTION_DDOT = 0

CCSDS_OMM_VERS = 2.0
CREATION_DATE  = 
ORIGINATOR     = 

OBJECT_NAME    = SL-14 R/B
OBJECT_ID      = 1984-027B
CENTER_NAME    = EARTH
REF_FRAME      = TEME
TIME_SYSTEM    = UTC
MEAN_ELEMENT_THEORY = SGP/SGP4

EPOCH          = 2026-03-22T19:46:23.144736
MEAN_MOTION    = 14.85989545
ECCENTRICITY   = .00165599
INCLINATION    = 82.5403
RA_OF_ASC_NODE = 232.6924
ARG_OF_PERICENTER = 291.8046
MEAN_ANOMALY   = 68.1408

EPHEMERIS_TYPE = 0
CLASSIFICATION_TYPE = U
NORAD_CAT_ID   = 14820
ELEMENT_SET_NO = 999
REV_AT_EPOCH   = 24958
BSTAR          = .56581719E-4
MEAN_MOTION_DOT = .519E-5
MEAN_MOTION_DDOT = 0

CCSDS_OMM_VERS = 2.0
CREATION_DATE  = 
ORIGINATOR     = 

OBJECT_NAME    = SL-8 R/B
OBJECT_ID      = 1985-006B
CENTER_NAME    = EARTH
REF_FRAME      = TEME
TIME_SYSTEM    = UTC
MEAN_ELEMENT_THEORY = SGP/SGP4

EPOCH          = 2026-03-22T21:18:12.113280
MEAN_MOTION    = 14.37792763
ECCENTRICITY   = .00179051
INCLINATION    = 74.0441
RA_OF_ASC_NODE = 236.8606
ARG_OF_PERICENTER = 151.0564
MEAN_ANOMALY   = 319.7422

EPHEMERIS_TYPE = 0
CLASSIFICATION_TYPE = U
NORAD_CAT_ID   = 15483
ELEMENT_SET_NO = 999
REV_AT_EPOCH   = 15592
BSTAR          = .12280547E-3
MEAN_MOTION_DOT = .344E-5
MEAN_MOTION_DDOT = 0

CCSDS_OMM_VERS = 2.0
CREATION_DATE  = 
ORIGINATOR     = 

OBJECT_NAME    = SL-12 R/B(2)
OBJECT_ID      = 1985-042D
CENTER_NAME    = EARTH
REF_FRAME      = TEME
TIME_SYSTEM    = UTC
MEAN_ELEMENT_THEORY = SGP/SGP4

EPOCH          = 2026-03-22T08:46:24.913632
MEAN_MOTION    = 14.21985713
ECCENTRICITY   = .00328851
INCLINATION    = 71.1073
RA_OF_ASC_NODE = 60.9456
ARG_OF_PERICENTER = 107.1467
MEAN_ANOMALY   = 0.9123

EPHEMERIS_TYPE = 0
CLASSIFICATION_TYPE = U
NORAD_CAT_ID   = 15772
ELEMENT_SET_NO = 999
REV_AT_EPOCH   = 11619
BSTAR          = .70521188E-4
MEAN_MOTION_DOT = .109E-5
MEAN_MOTION_DDOT = 0

CCSDS_OMM_VERS = 2.0
CREATION_DATE  = 
ORIGINATOR     = 

OBJECT_NAME    = SL-14 R/B
OBJECT_ID      = 1985-069B
CENTER_NAME    = EARTH
REF_FRAME      = TEME
TIME_SYSTEM    = UTC
MEAN_ELEMENT_THEORY = SGP/SGP4

EPOCH          = 2026-03-22T20:55:39.760608
MEAN_MOTION    = 14.86447091
ECCENTRICITY   = .00196334
INCLINATION    = 82.5302
RA_OF_ASC_NODE = 12.5402
ARG_OF_PERICENTER = 144.7486
MEAN_ANOMALY   = 215.5034

EPHEMERIS_TYPE = 0
CLASSIFICATION_TYPE = U
NORAD_CAT_ID   = 15945
ELEMENT_SET_NO = 999
REV_AT_EPOCH   = 17479
BSTAR          = .56150632E-4
MEAN_MOTION_DOT = .522E-5
MEAN_MOTION_DDOT = 0

CCSDS_OMM_VERS = 2.0
CREATION_DATE  = 
ORIGINATOR     = 

OBJECT_NAME    = SL-16 R/B
OBJECT_ID      = 1985-097B
CENTER_NAME    = EARTH
REF_FRAME      = TEME
TIME_SYSTEM    = UTC
MEAN_ELEMENT_THEORY = SGP/SGP4

EPOCH          = 2026-03-22T20:38:17.119968
MEAN_MOTION    = 14.16601987
ECCENTRICITY   = .0009557
INCLINATION    = 71.0012
RA_OF_ASC_NODE = 112.8267
ARG_OF_PERICENTER = 244.1194
MEAN_ANOMALY   = 288.1368

EPHEMERIS_TYPE = 0
CLASSIFICATION_TYPE = U
NORAD_CAT_ID   = 16182
ELEMENT_SET_NO = 999
REV_AT_EPOCH   = 8909
BSTAR          = .13829507E-3
MEAN_MOTION_DOT = .228E-5
MEAN_MOTION_DDOT = 0

CCSDS_OMM_VERS = 2.0
CREATION_DATE  = 
ORIGINATOR     = 

OBJECT_NAME    = SL-14 R/B
OBJECT_ID      = 1986-006B
CENTER_NAME    = EARTH
REF_FRAME      = TEME
TIME_SYSTEM    = UTC
MEAN_ELEMENT_THEORY = SGP/SGP4

EPOCH          = 2026-03-22T20:17:45.019680
MEAN_MOTION    = 14.86833820
ECCENTRICITY   = .00753941
INCLINATION    = 82.5241
RA_OF_ASC_NODE = 247.3517
ARG_OF_PERICENTER = 228.3669
MEAN_ANOMALY   = 131.1076

EPHEMERIS_TYPE = 0
CLASSIFICATION_TYPE = U
NORAD_CAT_ID   = 16496
ELEMENT_SET_NO = 999
REV_AT_EPOCH   = 15116
BSTAR          = .82197291E-4
MEAN_MOTION_DOT = .797E-5
MEAN_MOTION_DDOT = 0

CCSDS_OMM_VERS = 2.0
CREATION_DATE  = 
ORIGINATOR     = 

OBJECT_NAME    = COSMOS 1743
OBJECT_ID      = 1986-034A
CENTER_NAME    = EARTH
REF_FRAME      = TEME
TIME_SYSTEM    = UTC
MEAN_ELEMENT_THEORY = SGP/SGP4

EPOCH          = 2026-03-22T22:16:28.909632
MEAN_MOTION    = 15.59584453
ECCENTRICITY   = .00030508
INCLINATION    = 82.5304
RA_OF_ASC_NODE = 59.9244
ARG_OF_PERICENTER = 192.0968
MEAN_ANOMALY   = 168.0216

EPHEMERIS_TYPE = 0
CLASSIFICATION_TYPE = U
NORAD_CAT_ID   = 16719
ELEMENT_SET_NO = 999
REV_AT_EPOCH   = 18231
BSTAR          = .62964447E-3
MEAN_MOTION_DOT = .50305E-3
MEAN_MOTION_DDOT = 0

